[{"OBJECT_NAME":"KUIPER-00097","OBJECT_ID":"2025-171E","EPOCH":"2026-03-14T20:59:18.068352","MEAN_MOTION":14.79935881,"ECCENTRICITY":8.345e-5,"INCLINATION":51.8989,"RA_OF_ASC_NODE":137.7836,"ARG_OF_PERICENTER":64.8596,"MEAN_ANOMALY":295.2453,"EPHEMERIS_TYPE":0,"CLASSIFICATION_TYPE":"U","NORAD_CAT_ID":65136,"ELEMENT_SET_NO":999,"REV_AT_EPOCH":3361,"BSTAR":0.00074968505,"MEAN_MOTION_DOT":5.499e-5,"MEAN_MOTION_DDOT":0},{"OBJECT_NAME":"KUIPER-00098","OBJECT_ID":"2025-171F","EPOCH":"2026-03-14T20:55:20.444160","MEAN_MOTION":14.79972619,"ECCENTRICITY":0.00010859,"INCLINATION":51.9022,"RA_OF_ASC_NODE":140.1738,"ARG_OF_PERICENTER":196.3057,"MEAN_ANOMALY":163.7871,"EPHEMERIS_TYPE":0,"CLASSIFICATION_TYPE":"U","NORAD_CAT_ID":65137,"ELEMENT_SET_NO":999,"REV_AT_EPOCH":3293,"BSTAR":0.00068495785,"MEAN_MOTION_DOT":5.009e-5,"MEAN_MOTION_DDOT":0},{"OBJECT_NAME":"KUIPER-00099","OBJECT_ID":"2025-171G","EPOCH":"2026-03-14T20:23:24.602784","MEAN_MOTION":14.79994355,"ECCENTRICITY":7.336e-5,"INCLINATION":51.9022,"RA_OF_ASC_NODE":130.2645,"ARG_OF_PERICENTER":32.3651,"MEAN_ANOMALY":327.7357,"EPHEMERIS_TYPE":0,"CLASSIFICATION_TYPE":"U","NORAD_CAT_ID":65138,"ELEMENT_SET_NO":999,"REV_AT_EPOCH":3372,"BSTAR":0.00066567271,"MEAN_MOTION_DOT":4.864e-5,"MEAN_MOTION_DDOT":0},{"OBJECT_NAME":"KUIPER-00100","OBJECT_ID":"2025-171H","EPOCH":"2026-03-14T21:14:47.613984","MEAN_MOTION":14.79950034,"ECCENTRICITY":8.436e-5,"INCLINATION":51.9001,"RA_OF_ASC_NODE":127.5789,"ARG_OF_PERICENTER":71.0766,"MEAN_ANOMALY":289.0288,"EPHEMERIS_TYPE":0,"CLASSIFICATION_TYPE":"U","NORAD_CAT_ID":65139,"ELEMENT_SET_NO":999,"REV_AT_EPOCH":3376,"BSTAR":0.00063816561,"MEAN_MOTION_DOT":4.649e-5,"MEAN_MOTION_DDOT":0},{"OBJECT_NAME":"KUIPER-00102","OBJECT_ID":"2025-171J","EPOCH":"2026-03-14T21:09:51.545376","MEAN_MOTION":14.79809287,"ECCENTRICITY":9.824e-5,"INCLINATION":51.8973,"RA_OF_ASC_NODE":130.1075,"ARG_OF_PERICENTER":121.2279,"MEAN_ANOMALY":238.878,"EPHEMERIS_TYPE":0,"CLASSIFICATION_TYPE":"U","NORAD_CAT_ID":65140,"ELEMENT_SET_NO":999,"REV_AT_EPOCH":3372,"BSTAR":-0.0079687483,"MEAN_MOTION_DOT":-0.00060251,"MEAN_MOTION_DDOT":0},{"OBJECT_NAME":"KUIPER-00103","OBJECT_ID":"2025-171K","EPOCH":"2026-03-14T16:40:38.074368","MEAN_MOTION":14.79947054,"ECCENTRICITY":9.99e-5,"INCLINATION":51.8981,"RA_OF_ASC_NODE":148.4361,"ARG_OF_PERICENTER":146.0081,"MEAN_ANOMALY":214.0946,"EPHEMERIS_TYPE":0,"CLASSIFICATION_TYPE":"U","NORAD_CAT_ID":65141,"ELEMENT_SET_NO":999,"REV_AT_EPOCH":3345,"BSTAR":0.00076586297,"MEAN_MOTION_DOT":5.624e-5,"MEAN_MOTION_DDOT":0},{"OBJECT_NAME":"KUIPER-00104","OBJECT_ID":"2025-171L","EPOCH":"2026-03-14T13:45:33.609888","MEAN_MOTION":14.79931977,"ECCENTRICITY":2.82e-5,"INCLINATION":51.9038,"RA_OF_ASC_NODE":136.4317,"ARG_OF_PERICENTER":134.115,"MEAN_ANOMALY":225.9836,"EPHEMERIS_TYPE":0,"CLASSIFICATION_TYPE":"U","NORAD_CAT_ID":65142,"ELEMENT_SET_NO":999,"REV_AT_EPOCH":3361,"BSTAR":8.2833277e-5,"MEAN_MOTION_DOT":4.1e-6,"MEAN_MOTION_DDOT":0},{"OBJECT_NAME":"KUIPER-00105","OBJECT_ID":"2025-171M","EPOCH":"2026-03-14T11:08:14.691552","MEAN_MOTION":14.79831059,"ECCENTRICITY":0.00011848,"INCLINATION":51.9001,"RA_OF_ASC_NODE":144.5423,"ARG_OF_PERICENTER":124.2519,"MEAN_ANOMALY":235.8555,"EPHEMERIS_TYPE":0,"CLASSIFICATION_TYPE":"U","NORAD_CAT_ID":65143,"ELEMENT_SET_NO":999,"REV_AT_EPOCH":3349,"BSTAR":-0.00011119335,"MEAN_MOTION_DOT":-1.067e-5,"MEAN_MOTION_DDOT":0},{"OBJECT_NAME":"KUIPER-00106","OBJECT_ID":"2025-171N","EPOCH":"2026-03-14T23:36:19.726560","MEAN_MOTION":14.97187734,"ECCENTRICITY":0.00080627,"INCLINATION":51.892,"RA_OF_ASC_NODE":130.9181,"ARG_OF_PERICENTER":114.9574,"MEAN_ANOMALY":245.2234,"EPHEMERIS_TYPE":0,"CLASSIFICATION_TYPE":"U","NORAD_CAT_ID":65144,"ELEMENT_SET_NO":999,"REV_AT_EPOCH":3373,"BSTAR":0.00059767532,"MEAN_MOTION_DOT":6.736e-5,"MEAN_MOTION_DDOT":0},{"OBJECT_NAME":"KUIPER-00107","OBJECT_ID":"2025-171P","EPOCH":"2026-03-14T13:12:20.102688","MEAN_MOTION":14.79952559,"ECCENTRICITY":6.372e-5,"INCLINATION":51.8997,"RA_OF_ASC_NODE":126.5979,"ARG_OF_PERICENTER":72.5304,"MEAN_ANOMALY":287.5728,"EPHEMERIS_TYPE":0,"CLASSIFICATION_TYPE":"U","NORAD_CAT_ID":65145,"ELEMENT_SET_NO":999,"REV_AT_EPOCH":3375,"BSTAR":0.00071424739,"MEAN_MOTION_DOT":5.231e-5,"MEAN_MOTION_DDOT":0},{"OBJECT_NAME":"KUIPER-00108","OBJECT_ID":"2025-171Q","EPOCH":"2026-03-14T21:47:54.547008","MEAN_MOTION":14.79933537,"ECCENTRICITY":5.229e-5,"INCLINATION":51.9022,"RA_OF_ASC_NODE":137.5316,"ARG_OF_PERICENTER":145.5068,"MEAN_ANOMALY":214.5928,"EPHEMERIS_TYPE":0,"CLASSIFICATION_TYPE":"U","NORAD_CAT_ID":65146,"ELEMENT_SET_NO":999,"REV_AT_EPOCH":3363,"BSTAR":0.00060438582,"MEAN_MOTION_DOT":4.389e-5,"MEAN_MOTION_DDOT":0},{"OBJECT_NAME":"KUIPER-00109","OBJECT_ID":"2025-171R","EPOCH":"2026-03-14T21:07:02.304192","MEAN_MOTION":14.79927309,"ECCENTRICITY":6.861e-5,"INCLINATION":51.9013,"RA_OF_ASC_NODE":132.601,"ARG_OF_PERICENTER":74.5776,"MEAN_ANOMALY":285.5263,"EPHEMERIS_TYPE":0,"CLASSIFICATION_TYPE":"U","NORAD_CAT_ID":65147,"ELEMENT_SET_NO":999,"REV_AT_EPOCH":3369,"BSTAR":0.00067676746,"MEAN_MOTION_DOT":4.941e-5,"MEAN_MOTION_DDOT":0},{"OBJECT_NAME":"KUIPER-00110","OBJECT_ID":"2025-171S","EPOCH":"2026-03-14T21:37:09.349824","MEAN_MOTION":14.80056678,"ECCENTRICITY":0.00014898,"INCLINATION":51.8994,"RA_OF_ASC_NODE":145.0994,"ARG_OF_PERICENTER":217.7358,"MEAN_ANOMALY":142.3501,"EPHEMERIS_TYPE":0,"CLASSIFICATION_TYPE":"U","NORAD_CAT_ID":65148,"ELEMENT_SET_NO":999,"REV_AT_EPOCH":3351,"BSTAR":0.00073629967,"MEAN_MOTION_DOT":5.413e-5,"MEAN_MOTION_DDOT":0},{"OBJECT_NAME":"KUIPER-00111","OBJECT_ID":"2025-171T","EPOCH":"2026-03-14T22:16:57.952992","MEAN_MOTION":14.79860885,"ECCENTRICITY":4.753e-5,"INCLINATION":51.8966,"RA_OF_ASC_NODE":149.8797,"ARG_OF_PERICENTER":119.4548,"MEAN_ANOMALY":240.6461,"EPHEMERIS_TYPE":0,"CLASSIFICATION_TYPE":"U","NORAD_CAT_ID":65149,"ELEMENT_SET_NO":999,"REV_AT_EPOCH":3345,"BSTAR":0.00072307352,"MEAN_MOTION_DOT":5.286e-5,"MEAN_MOTION_DDOT":0},{"OBJECT_NAME":"KUIPER-00112","OBJECT_ID":"2025-171U","EPOCH":"2026-03-15T07:38:14.437824","MEAN_MOTION":14.79766191,"ECCENTRICITY":7.716e-5,"INCLINATION":51.9014,"RA_OF_ASC_NODE":130.7088,"ARG_OF_PERICENTER":150.7668,"MEAN_ANOMALY":209.3338,"EPHEMERIS_TYPE":0,"CLASSIFICATION_TYPE":"U","NORAD_CAT_ID":65150,"ELEMENT_SET_NO":999,"REV_AT_EPOCH":3375,"BSTAR":-0.0060650658,"MEAN_MOTION_DOT":-0.0004596,"MEAN_MOTION_DDOT":0},{"OBJECT_NAME":"KUIPER-00114","OBJECT_ID":"2025-171V","EPOCH":"2026-03-14T12:29:46.145472","MEAN_MOTION":14.79937272,"ECCENTRICITY":5.472e-5,"INCLINATION":51.9006,"RA_OF_ASC_NODE":154.2421,"ARG_OF_PERICENTER":136.1422,"MEAN_ANOMALY":223.9584,"EPHEMERIS_TYPE":0,"CLASSIFICATION_TYPE":"U","NORAD_CAT_ID":65151,"ELEMENT_SET_NO":999,"REV_AT_EPOCH":3335,"BSTAR":0.00068369896,"MEAN_MOTION_DOT":4.995e-5,"MEAN_MOTION_DDOT":0}]
