KUIPER-00097            
1 65136U 25171E   26073.87451468  .00005499  00000+0  74969-3 0  9992
2 65136  51.8989 137.7836 0000834  64.8596 295.2453 14.79935881 33619
KUIPER-00098            
1 65137U 25171F   26073.87176440  .00005009  00000+0  68496-3 0  9992
2 65137  51.9022 140.1738 0001085 196.3057 163.7871 14.79972619 32937
KUIPER-00099            
1 65138U 25171G   26073.84959031  .00004864  00000+0  66567-3 0  9990
2 65138  51.9022 130.2645 0000733  32.3651 327.7357 14.79994355 33723
KUIPER-00100            
1 65139U 25171H   26073.88527331  .00004649  00000+0  63817-3 0  9995
2 65139  51.9001 127.5789 0000843  71.0766 289.0288 14.79950034 33761
KUIPER-00102            
1 65140U 25171J   26073.88184659 -.00060251  00000+0 -79687-2 0  9993
2 65140  51.8973 130.1075 0000982 121.2279 238.8780 14.79809287 33727
KUIPER-00103            
1 65141U 25171K   26073.69488512  .00005624  00000+0  76586-3 0  9995
2 65141  51.8981 148.4361 0000999 146.0081 214.0946 14.79947054 33456
KUIPER-00104            
1 65142U 25171L   26073.57330567  .00000410  00000+0  82833-4 0  9990
2 65142  51.9038 136.4317 0000282 134.1150 225.9836 14.79931977 33613
KUIPER-00105            
1 65143U 25171M   26073.46405893 -.00001067  00000+0 -11119-3 0  9993
2 65143  51.9001 144.5423 0001184 124.2519 235.8555 14.79831059 33497
KUIPER-00106            
1 65144U 25171N   26073.98356165  .00006736  00000+0  59768-3 0  9996
2 65144  51.8920 130.9181 0008062 114.9574 245.2234 14.97187734 33736
KUIPER-00107            
1 65145U 25171P   26073.55023267  .00005231  00000+0  71425-3 0  9997
2 65145  51.8997 126.5979 0000637  72.5304 287.5728 14.79952559 33751
KUIPER-00108            
1 65146U 25171Q   26073.90827022  .00004389  00000+0  60439-3 0  9994
2 65146  51.9022 137.5316 0000522 145.5068 214.5928 14.79933537 33634
KUIPER-00109            
1 65147U 25171R   26073.87988778  .00004941  00000+0  67677-3 0  9992
2 65147  51.9013 132.6010 0000686  74.5776 285.5263 14.79927309 33696
KUIPER-00110            
1 65148U 25171S   26073.90080266  .00005413  00000+0  73630-3 0  9993
2 65148  51.8994 145.0994 0001489 217.7358 142.3501 14.80056678 33512
KUIPER-00111            
1 65149U 25171T   26073.92844853  .00005286  00000+0  72307-3 0  9994
2 65149  51.8966 149.8797 0000475 119.4548 240.6461 14.79860885 33459
KUIPER-00112            
1 65150U 25171U   26074.31822266 -.00045960  00000+0 -60651-2 0  9997
2 65150  51.9014 130.7088 0000771 150.7668 209.3338 14.79766191 33751
KUIPER-00114            
1 65151U 25171V   26073.52067298  .00004995  00000+0  68370-3 0  9994
2 65151  51.9006 154.2421 0000547 136.1422 223.9584 14.79937272 33353
